GLOBALSTAR M067         
1 32263U 07048A   26021.41995397 -.00000074  00000+0  17070-3 0  9992
2 32263  51.9724 117.3566 0001856 102.4019 335.6396 12.40683865836579
GLOBALSTAR M070         
1 32264U 07048B   26021.42739034 -.00000096  00000+0  40688-4 0  9994
2 32264  51.9727 183.6475 0000835  95.8352 288.5591 12.62329671841237
GLOBALSTAR M066         
1 32265U 07048C   26021.51370943 -.00000086  00000+0  75723-4 0  9992
2 32265  51.9587 118.9700 0005606  99.7509 273.0424 12.30385323842171
GLOBALSTAR M068         
1 32266U 07048D   26021.38498384 -.00000054  00000+0  27791-3 0  9994
2 32266  51.9907 357.1078 0000724 262.8841 254.7358 12.62838476845128
GLOBALSTAR M079         
1 37188U 10054A   26021.39608387 -.00000116  00000+0 -69994-4 0  9992
2 37188  52.0013 195.5238 0001219  81.4502 285.5094 12.62270040704015
GLOBALSTAR M074         
1 37189U 10054B   26021.50407157 -.00000119  00000+0 -86227-4 0  9999
2 37189  51.9989 194.4842 0001191  97.4228 279.7524 12.62265555704632
GLOBALSTAR M076         
1 37190U 10054C   26021.45716818 -.00000092  00000+0  65891-4 0  9995
2 37190  52.0001 194.8181 0001307  93.1238 310.2187 12.62269870704342
GLOBALSTAR M077         
1 37191U 10054D   26021.49919370 -.00000071  00000+0  13584-3 0  9996
2 37191  51.9941 191.8587 0001731  89.9469 285.5299 11.68177948704001
